     2.11           N: GPS NAV DATA                         RINEX VERSION / TYPE
teqc  2019Feb25                         20221121 12:28:42UTCPGM / RUN BY / DATE
OSX ker:10.11.6|Core i5|gcc 4.3 -m64|OSX ker:10.10+|=+      COMMENT
    1.2107D-08  0.0000D+00 -1.1921D-07  0.0000D+00          ION ALPHA
    9.4208D+04  0.0000D+00 -1.9661D+05  0.0000D+00          ION BETA
   -6.519258022308D-09-1.687538997430D-14   233472     1555 DELTA-UTC: A0,A1,T,W
                                                            END OF HEADER
 4 09 10 25  2  0  0.0-3.267829306424D-04-1.784883352229D-11 0.000000000000D+00
    7.900000000000D+01 9.812500000000D+00 5.134499586803D-09-3.129444779354D+00
    4.936009645462D-07 8.968347916380D-03 7.661059498787D-06 5.153559583664D+03
    7.200000000000D+03-1.192092895508D-07 3.135217111771D+00-9.872019290924D-08
    9.402366137718D-01 2.233125000000D+02 5.442142459421D-01-8.093194256883D-09
   -9.428964182777D-11 1.000000000000D+00 1.555000000000D+03 0.000000000000D+00
    2.000000000000D+00 0.000000000000D+00-6.053596735001D-09 7.900000000000D+01
    1.800000000000D+01 4.000000000000D+00
10 09 10 25  2  0  0.0-2.667633816600D-05-9.094947017729D-13 0.000000000000D+00
    6.900000000000D+01 5.487500000000D+01 4.749483549340D-09 1.438503006419D+00
    3.026798367500D-06 8.654206758365D-03 8.057802915573D-06 5.153392082214D+03
    7.200000000000D+03-6.705522537231D-08-2.081206797405D+00 1.676380634308D-07
    9.561362511413D-01 2.237187500000D+02 6.160415735643D-01-8.177483482154D-09
   -2.189376910622D-10 1.000000000000D+00 1.555000000000D+03 0.000000000000D+00
    2.000000000000D+00 0.000000000000D+00-2.793967723846D-09 6.900000000000D+01
    1.800000000000D+01 4.000000000000D+00
 7 09 10 25  2  0  0.0 8.978415280581D-06-6.821210263297D-13 0.000000000000D+00
    7.100000000000D+01-3.893750000000D+01 4.257677349352D-09-1.407766445112D+00
   -2.054497599602D-06 3.237333265133D-03 4.975125193596D-06 5.153648157120D+03
    7.200000000000D+03-3.166496753693D-08-8.866007704808D-03-5.029141902924D-08
    9.695325942956D-01 2.886875000000D+02 2.999920193826D+00-8.042835016362D-09
   -2.964409193828D-11 1.000000000000D+00 1.555000000000D+03 0.000000000000D+00
    2.000000000000D+00 0.000000000000D+00-1.071020960808D-08 7.100000000000D+01
    1.800000000000D+01 4.000000000000D+00
16 09 10 25  2  0  0.0-1.101288944483D-06-4.092726157978D-12 0.000000000000D+00
    6.000000000000D+01-7.068750000000D+01 4.134100773320D-09 2.539762016928D+00
   -3.594905138016D-06 5.299231503159D-03 7.975846529007D-06 5.153647890091D+03
    7.200000000000D+03-5.587935447693D-09 1.060874144592D+00 2.980232238770D-08
    9.695920311942D-01 2.321250000000D+02-2.696903157413D-01-7.799610599374D-09
    6.250260348431D-11 1.000000000000D+00 1.555000000000D+03 0.000000000000D+00
    2.000000000000D+00 0.000000000000D+00-9.778887033463D-09 6.000000000000D+01
    1.800000000000D+01 4.000000000000D+00
21 09 10 25  2  0  0.0-1.717638224363D-05-2.387423592154D-12 0.000000000000D+00
    6.900000000000D+01 1.431250000000D+01 5.252361639088D-09-2.338979064804D+00
    4.116445779800D-07 1.561904291157D-02 7.422640919685D-06 5.153741163254D+03
    7.200000000000D+03 1.396983861923D-07-3.135816521974D+00-2.291053533554D-07
    9.337727336453D-01 2.224687500000D+02-2.551248949165D+00-8.144624970608D-09
    7.571743964957D-11 1.000000000000D+00 1.555000000000D+03 0.000000000000D+00
    2.000000000000D+00 0.000000000000D+00-1.210719347000D-08 6.900000000000D+01
    3.318000000000D+03 4.000000000000D+00
15 09 10 25  1 59 44.0-3.203656524420D-04-1.136868377216D-13 0.000000000000D+00
    1.300000000000D+01 5.137500000000D+01 4.716982195528D-09 1.104973593580D+00
    2.628192305565D-06 1.883221440949D-03 4.841014742851D-06 5.153680160522D+03
    7.184000000000D+03 3.725290298462D-08-1.072409429197D+00-1.490116119385D-08
    9.553363626456D-01 2.793437500000D+02-4.998489847394D-01-8.274273228121D-09
   -9.928985010651D-11 1.000000000000D+00 1.555000000000D+03 0.000000000000D+00
    2.000000000000D+00 0.000000000000D+00-9.778887033463D-09 1.300000000000D+01
    4.218000000000D+03 4.000000000000D+00
 6 09 10 25  2  0  0.0 2.562156878412D-04 3.410605131648D-12 0.000000000000D+00
    3.100000000000D+01-1.778125000000D+01 5.119498961967D-09 2.365565350926D+00
   -9.313225746155D-07 5.777017562650D-03 7.735565304756D-06 5.153696893692D+03
    7.200000000000D+03 1.080334186554D-07 2.036503818638D+00-3.725290298462D-09
    9.338505287029D-01 2.150937500000D+02-1.225181153759D+00-8.133910238582D-09
    2.057228548969D-10 1.000000000000D+00 1.555000000000D+03 0.000000000000D+00
    2.000000000000D+00 0.000000000000D+00-5.122274160385D-09 3.100000000000D+01
    7.158000000000D+03 4.000000000000D+00
25 09 10 25  4  0  0.0 6.432984955609D-04 1.341504685115D-11 0.000000000000D+00
    8.900000000000D+01-2.143750000000D+01 4.292321649569D-09-2.053954678748D+00
   -1.089647412300D-06 1.125816709828D-02 4.453584551811D-06 5.153640655518D+03
    1.440000000000D+04 5.774199962616D-08-1.030749286388D-01 2.998858690262D-07
    9.716389900583D-01 2.994062500000D+02-1.215036456174D+00-7.978189466472D-09
   -1.350056235261D-10 1.000000000000D+00 1.555000000000D+03 0.000000000000D+00
    4.000000000000D+00 0.000000000000D+00-7.450580596924D-09 8.900000000000D+01
    7.218000000000D+03 4.000000000000D+00
29 09 10 25  4  0  0.0 6.883032619953D-05 3.183231456205D-12 0.000000000000D+00
    2.900000000000D+01-8.281250000000D+00 4.525545649999D-09-1.216198108219D+00
   -3.855675458908D-07 2.955397474580D-03 8.255243301392D-06 5.153583524704D+03
    1.440000000000D+04-4.470348358154D-08 2.112097992079D+00 7.264316082001D-08
    9.600060073950D-01 2.200937500000D+02-1.271676000901D+00-8.007833558410D-09
    2.814402945465D-10 1.000000000000D+00 1.555000000000D+03 0.000000000000D+00
    2.000000000000D+00 0.000000000000D+00-8.847564458847D-09 2.900000000000D+01
    7.218000000000D+03 4.000000000000D+00
 5 09 10 25  4  0  0.0-5.796924233437D-05 8.071765478235D-12 0.000000000000D+00
    7.200000000000D+01 4.756250000000D+01 4.560189950216D-09 2.755986759877D+00
    2.572312951088D-06 1.572455512360D-03 7.858499884605D-06 5.153585330963D+03
    1.440000000000D+04-3.166496753693D-08-2.108233334095D+00 9.313225746155D-09
    9.610772584169D-01 2.291250000000D+02 2.163317334622D-01-7.966403261244D-09
   -9.607543049875D-11 1.000000000000D+00 1.555000000000D+03 0.000000000000D+00
    2.000000000000D+00 0.000000000000D+00-9.313225746155D-09 7.200000000000D+01
    7.218000000000D+03 4.000000000000D+00
10 09 10 25  4  0  0.0-2.668285742402D-05-9.094947017729D-13 0.000000000000D+00
    7.400000000000D+01 4.812500000000D+01 4.627335604244D-09 2.488755433876D+00
    2.514570951462D-06 8.654010714963D-03 7.977709174156D-06 5.153393737793D+03
    1.440000000000D+04-1.154839992523D-07-2.081265722283D+00-1.154839992523D-07
    9.561361136270D-01 2.245312500000D+02 6.161432814808D-01-7.940330746647D-09
   -9.178953768839D-11 1.000000000000D+00 1.555000000000D+03 0.000000000000D+00
    2.000000000000D+00 0.000000000000D+00-2.793967723846D-09 7.400000000000D+01
    7.218000000000D+03 4.000000000000D+00
 7 09 10 25  4  0  0.0 8.973293006420D-06-6.821210263297D-13 0.000000000000D+00
    7.200000000000D+01-3.003125000000D+01 4.385182660460D-09-3.579783156680D-01
   -1.735985279083D-06 3.236446180381D-03 4.662200808525D-06 5.153645156860D+03
    1.440000000000D+04 1.005828380585D-07-8.923577919982D-03-1.303851604462D-08
    9.695318350411D-01 2.959375000000D+02 3.000327909095D+00-8.120338244682D-09
   -1.225051028293D-10 1.000000000000D+00 1.555000000000D+03 0.000000000000D+00
    2.000000000000D+00 0.000000000000D+00-1.071020960808D-08 7.200000000000D+01
    7.218000000000D+03 4.000000000000D+00
15 09 10 25  4  0  0.0-3.203665837646D-04-1.136868377216D-13 0.000000000000D+00
    1.400000000000D+01 4.637500000000D+01 4.796271212519D-09 2.157691454933D+00
    2.572312951088D-06 1.882935990579D-03 5.049630999565D-06 5.153679471970D+03
    1.440000000000D+04 1.005828380585D-07-1.072469537575D+00 5.960464477539D-08
    9.553357511458D-01 2.775312500000D+02-5.000536221091D-01-8.295345534438D-09
   -3.178703834345D-11 1.000000000000D+00 1.555000000000D+03 0.000000000000D+00
    2.000000000000D+00 0.000000000000D+00-9.778887033463D-09 1.400000000000D+01
    7.218000000000D+03 4.000000000000D+00
21 09 10 25  4  0  0.0-1.719314604998D-05-2.387423592154D-12 0.000000000000D+00
    9.500000000000D+01 1.687500000000D+01 5.215217234731D-09-1.288880768932D+00
    8.344650268555D-07 1.561931415927D-02 6.811693310738D-06 5.153739702225D+03
    1.440000000000D+04 3.408640623093D-07-3.135874924589D+00-1.117587089539D-07
    9.337731578915D-01 2.275625000000D+02-2.551202201618D+00-8.233557246422D-09
    1.964367538078D-11 1.000000000000D+00 1.555000000000D+03 0.000000000000D+00
    2.000000000000D+00 0.000000000000D+00-1.210719347000D-08 9.500000000000D+01
    7.218000000000D+03 4.000000000000D+00
 6 09 10 25  4  0  0.0 2.562403678894D-04 3.410605131648D-12 0.000000000000D+00
    3.200000000000D+01-1.656250000000D+01 5.056282043014D-09-2.867527890950D+00
   -8.530914783478D-07 5.776005098596D-03 8.052214980125D-06 5.153698934555D+03
    1.440000000000D+04 8.195638656616D-08 2.036444961055D+00 6.891787052155D-08
    9.338522388541D-01 2.067812500000D+02-1.225103071969D+00-8.125695610695D-09
    2.653681965077D-10 1.000000000000D+00 1.555000000000D+03 0.000000000000D+00
    2.000000000000D+00 0.000000000000D+00-5.122274160385D-09 3.200000000000D+01
    7.218000000000D+03 4.000000000000D+00
